STARLINK-37183          
1 68349U 26059AE  26093.51717220  .00525190  00000+0  25128-2 0  9998
2 68349  53.1595 238.2174 0000710  56.2916 303.8175 15.80811162  1904
CENTISPACE-1 OBJECT A   
1 68350U 26060A   26090.92174954  .00002073  00000+0  33708-3 0  9999
2 68350  54.9828 350.9279 0013011 316.4493  43.5478 14.74887229  1375
CENTISPACE-1 OBJECT B   
1 68351U 26060B   26093.49682106  .00002209  00000+0  35681-3 0  9991
2 68351  54.9822 340.4202 0013411 323.5822  36.4264 14.74938146  1750
CENTISPACE-1 OBJECT C   
1 68352U 26060C   26093.49537333  .00000106  00000+0  46479-4 0  9995
2 68352  54.9855 340.4152 0012860 329.5017  30.5234 14.75112417  1758
CENTISPACE-1 OBJECT D   
1 68353U 26060D   26090.51361463  .00000086  00000+0  43489-4 0  9990
2 68353  54.9893 352.5746 0013212 325.1986  34.8148 14.75128916  1317
CENTISPACE-1 OBJECT E   
1 68354U 26060E   26093.49457551  .00000137  00000+0  50949-4 0  9991
2 68354  54.9777 340.4051 0013605 330.4644  29.5585 14.75213159  1758
CENTISPACE-1 OBJECT F   
1 68355U 26060F   26091.52938487  .00000056  00000+0  38992-4 0  9990
2 68355  54.9764 348.4206 0013924 323.7943  36.2113 14.75237979  1462
CENTISPACE-1 OBJECT G   
1 68356U 26060G   26092.00314274  .00000051  00000+0  38325-4 0  9992
2 68356  54.9880 346.4927 0014242 325.6905  34.3173 14.75310904  1536
CENTISPACE-1 OBJECT H   
1 68357U 26060H   26092.40903992  .00000123  00000+0  48805-4 0  9992
2 68357  54.9838 344.8287 0013821 328.1926  31.8237 14.75277593  1599
CENTISPACE-1 OBJECT J   
1 68358U 26060J   26090.91843375  .00000091  00000+0  44083-4 0  9993
2 68358  54.9876 350.9118 0014725 324.9275  35.0754 14.75410591  1371
CENTISPACE-1 OBJECT K   
1 68359U 26060K   26091.73090155  .00000049  00000+0  37853-4 0  9995
2 68359  54.9775 347.5897 0015115 326.6312  33.3734 14.75493204  1495
RASSVET-3 1             
1 68360U 26061A   26093.49033804  .00135363  52792-5  44936-3 0  9999
2 68360  82.2953  96.5020 0025300  35.0711 325.2220 15.89651007  1710
